start=new Date('2022-01-20T00:00:00.000Z').valueOf();
sats=[{"REF_FRAME":"TEME","ELEMENT_SET_NO":"999","OBJECT_TYPE":"PAYLOAD","EPOCH":"2022-01-19T11:40:10.654752","RCS_SIZE":"LARGE","TIME_SYSTEM":"UTC","FILE":"3277251","TLE_LINE2":"2 46063  53.0555  56.1890 0001399  85.5922 274.5227 15.06386368 80863","PERIAPSIS":"546.286","SITE":"AFETR","ARG_OF_PERICENTER":"85.5922","COUNTRY_CODE":"US","INCLINATION":"53.0555","ECCENTRICITY":"0.00013990","EPHEMERIS_TYPE":"0","GP_ID":"194167018","RA_OF_ASC_NODE":"56.1890","SEMIMAJOR_AXIS":"6925.390","BSTAR":"0.00023678000000","NORAD_CAT_ID":"46063","MEAN_MOTION":"15.06386368","DECAY_DATE":null,"APOAPSIS":"548.224","MEAN_ANOMALY":"274.5227","TLE_LINE1":"1 46063U 20055AN  22019.48623443  .00003246  00000-0  23678-3 0  9993","OBJECT_NAME":"STARLINK-1577","MEAN_MOTION_DDOT":"0.0000000000000","PERIOD":"95.593","CENTER_NAME":"EARTH","LAUNCH_DATE":"2020-08-07","CLASSIFICATION_TYPE":"U","MEAN_ELEMENT_THEORY":"SGP4","MEAN_MOTION_DOT":"0.00003246","OBJECT_ID":"2020-055AN","REV_AT_EPOCH":"8086"},{"ELEMENT_SET_NO":"999","REF_FRAME":"TEME","EPOCH":"2022-01-19T12:27:56.496960","OBJECT_TYPE":"PAYLOAD","RCS_SIZE":"LARGE","TIME_SYSTEM":"UTC","FILE":"3277244","ARG_OF_PERICENTER":"83.0420","TLE_LINE2":"2 46064  53.0569  56.0279 0001729  83.0420 277.0766 15.06401682 80887","PERIAPSIS":"546.011","SITE":"AFETR","COUNTRY_CODE":"US","INCLINATION":"53.0569","ECCENTRICITY":"0.00017290","EPHEMERIS_TYPE":"0","RA_OF_ASC_NODE":"56.0279","GP_ID":"194166641","BSTAR":"0.00011594000000","SEMIMAJOR_AXIS":"6925.343","NORAD_CAT_ID":"46064","DECAY_DATE":null,"MEAN_MOTION":"15.06401682","TLE_LINE1":"1 46064U 20055AP  22019.51940390  .00001446  00000-0  11594-3 0  9995","OBJECT_NAME":"STARLINK-1583","MEAN_ANOMALY":"277.0766","APOAPSIS":"548.406","PERIOD":"95.592","CENTER_NAME":"EARTH","MEAN_MOTION_DDOT":"0.0000000000000","MEAN_ELEMENT_THEORY":"SGP4","LAUNCH_DATE":"2020-08-07","CLASSIFICATION_TYPE":"U","MEAN_MOTION_DOT":"0.00001446","REV_AT_EPOCH":"8088","OBJECT_ID":"2020-055AP"},{"APOAPSIS":"548.371","TLE_LINE1":"1 46065U 20055AQ  22019.31390136  .00008538  00000-0  59143-3 0  9992","MEAN_ANOMALY":"288.2779","OBJECT_NAME":"STARLINK-1515","NORAD_CAT_ID":"46065","MEAN_MOTION":"15.06395595","DECAY_DATE":null,"LAUNCH_DATE":"2020-08-07","CLASSIFICATION_TYPE":"U","MEAN_ELEMENT_THEORY":"SGP4","MEAN_MOTION_DDOT":"0.0000000000000","PERIOD":"95.592","CENTER_NAME":"EARTH","MEAN_MOTION_DOT":"0.00008538","OBJECT_ID":"2020-055AQ","REV_AT_EPOCH":"8164","OBJECT_TYPE":"PAYLOAD","EPOCH":"2022-01-19T07:32:01.077504","RCS_SIZE":"LARGE","REF_FRAME":"TEME","ELEMENT_SET_NO":"999","PERIAPSIS":"546.083","TLE_LINE2":"2 46065  53.0505  36.9619 0001652  71.8390 288.2779 15.06395595 81647","SITE":"AFETR","ARG_OF_PERICENTER":"71.8390","TIME_SYSTEM":"UTC","FILE":"3277432","ECCENTRICITY":"0.00016520","COUNTRY_CODE":"US","INCLINATION":"53.0505","RA_OF_ASC_NODE":"36.9619","GP_ID":"194190957","SEMIMAJOR_AXIS":"6925.362","BSTAR":"0.00059143000000","EPHEMERIS_TYPE":"0"},{"RCS_SIZE":"LARGE","EPOCH":"2022-01-19T10:49:46.115616","OBJECT_TYPE":"PAYLOAD","ELEMENT_SET_NO":"999","REF_FRAME":"TEME","ARG_OF_PERICENTER":"71.5459","TLE_LINE2":"2 46066  53.0557  36.3458 0001559  71.5459 288.5699 15.06384834 81670","PERIAPSIS":"546.180","SITE":"AFETR","FILE":"3277432","TIME_SYSTEM":"UTC","ECCENTRICITY":"0.00015590","INCLINATION":"53.0557","COUNTRY_CODE":"US","BSTAR":"0.00011597000000","SEMIMAJOR_AXIS":"6925.395","GP_ID":"194190205","RA_OF_ASC_NODE":"36.3458","EPHEMERIS_TYPE":"0","MEAN_ANOMALY":"288.5699","TLE_LINE1":"1 46066U 20055AR  22019.45122819  .00001446  00000-0  11597-3 0  9991","OBJECT_NAME":"STARLINK-1525","APOAPSIS":"548.340","DECAY_DATE":null,"MEAN_MOTION":"15.06384834","NORAD_CAT_ID":"46066","MEAN_ELEMENT_THEORY":"SGP4","LAUNCH_DATE":"2020-08-07","CLASSIFICATION_TYPE":"U","PERIOD":"95.593","CENTER_NAME":"EARTH","MEAN_MOTION_DDOT":"0.0000000000000","REV_AT_EPOCH":"8167","OBJECT_ID":"2020-055AR","MEAN_MOTION_DOT":"0.00001446"},{"CLASSIFICATION_TYPE":"U","LAUNCH_DATE":"2020-08-07","MEAN_ELEMENT_THEORY":"SGP4","MEAN_MOTION_DDOT":"0.0000000000000","PERIOD":"95.593","CENTER_NAME":"EARTH","APOAPSIS":"548.400","MEAN_ANOMALY":"297.7030","TLE_LINE1":"1 46067U 20055AS  22019.45491396  .00001337  00000-0  10867-3 0  9999","OBJECT_NAME":"STARLINK-1529","NORAD_CAT_ID":"46067","MEAN_MOTION":"15.06384930","DECAY_DATE":null,"MEAN_MOTION_DOT":"0.00001337","OBJECT_ID":"2020-055AS","REV_AT_EPOCH":"8168","TLE_LINE2":"2 46067  53.0550  36.3296 0001647  62.4126 297.7030 15.06384930 81681","PERIAPSIS":"546.119","SITE":"AFETR","ARG_OF_PERICENTER":"62.4126","TIME_SYSTEM":"UTC","FILE":"3277432","OBJECT_TYPE":"PAYLOAD","EPOCH":"2022-01-19T10:55:04.566144","RCS_SIZE":"LARGE","REF_FRAME":"TEME","ELEMENT_SET_NO":"999","RA_OF_ASC_NODE":"36.3296","GP_ID":"194190455","SEMIMAJOR_AXIS":"6925.395","BSTAR":"0.00010867000000","EPHEMERIS_TYPE":"0","ECCENTRICITY":"0.00016470","COUNTRY_CODE":"US","INCLINATION":"53.0550"},{"TIME_SYSTEM":"UTC","FILE":"3277747","SITE":"AFETR","TLE_LINE2":"2 46068  53.0557  35.0777 0001378  66.9775 293.1360 15.06389394 81189","PERIAPSIS":"546.292","ARG_OF_PERICENTER":"66.9775","REF_FRAME":"TEME","ELEMENT_SET_NO":"999","OBJECT_TYPE":"PAYLOAD","EPOCH":"2022-01-19T17:33:08.713440","RCS_SIZE":"LARGE","EPHEMERIS_TYPE":"0","RA_OF_ASC_NODE":"35.0777","GP_ID":"194198865","SEMIMAJOR_AXIS":"6925.381","BSTAR":"0.00018658000000","COUNTRY_CODE":"US","INCLINATION":"53.0557","ECCENTRICITY":"0.00013780","MEAN_MOTION_DDOT":"0.0000000000000","CENTER_NAME":"EARTH","PERIOD":"95.593","CLASSIFICATION_TYPE":"U","LAUNCH_DATE":"2020-08-07","MEAN_ELEMENT_THEORY":"SGP4","NORAD_CAT_ID":"46068","MEAN_MOTION":"15.06389394","DECAY_DATE":null,"APOAPSIS":"548.200","OBJECT_NAME":"STARLINK-1532","TLE_LINE1":"1 46068U 20055AT  22019.73135085  .00002498  00000-0  18658-3 0  9996","MEAN_ANOMALY":"293.1360","MEAN_MOTION_DOT":"0.00002498","OBJECT_ID":"2020-055AT","REV_AT_EPOCH":"8118"},{"PERIOD":"95.592","CENTER_NAME":"EARTH","MEAN_MOTION_DDOT":"0.0000000000000","MEAN_ELEMENT_THEORY":"SGP4","LAUNCH_DATE":"2020-08-07","CLASSIFICATION_TYPE":"U","DECAY_DATE":null,"MEAN_MOTION":"15.06396187","NORAD_CAT_ID":"46069","MEAN_ANOMALY":"285.3485","TLE_LINE1":"1 46069U 20055AU  22019.74608888  .00004488  00000-0  32000-3 0  9992","OBJECT_NAME":"STARLINK-1533","APOAPSIS":"548.229","REV_AT_EPOCH":"8119","OBJECT_ID":"2020-055AU","MEAN_MOTION_DOT":"0.00004488","FILE":"3277711","TIME_SYSTEM":"UTC","ARG_OF_PERICENTER":"74.7664","PERIAPSIS":"546.222","TLE_LINE2":"2 46069  53.0548  35.0125 0001449  74.7664 285.3485 15.06396187 81190","SITE":"AFETR","ELEMENT_SET_NO":"999","REF_FRAME":"TEME","RCS_SIZE":"LARGE","EPOCH":"2022-01-19T17:54:22.079232","OBJECT_TYPE":"PAYLOAD","EPHEMERIS_TYPE":"0","BSTAR":"0.00032000000000","SEMIMAJOR_AXIS":"6925.360","RA_OF_ASC_NODE":"35.0125","GP_ID":"194197796","INCLINATION":"53.0548","COUNTRY_CODE":"US","ECCENTRICITY":"0.00014490"},{"MEAN_MOTION_DOT":"0.00001391","OBJECT_ID":"2020-055AV","REV_AT_EPOCH":"8168","MEAN_MOTION_DDOT":"0.0000000000000","PERIOD":"95.592","CENTER_NAME":"EARTH","LAUNCH_DATE":"2020-08-07","CLASSIFICATION_TYPE":"U","MEAN_ELEMENT_THEORY":"SGP4","NORAD_CAT_ID":"46070","MEAN_MOTION":"15.06398682","DECAY_DATE":null,"APOAPSIS":"548.230","OBJECT_NAME":"STARLINK-1536","TLE_LINE1":"1 46070U 20055AV  22019.42909489  .00001391  00000-0  11225-3 0  9996","MEAN_ANOMALY":"295.9400","EPHEMERIS_TYPE":"0","GP_ID":"194189706","RA_OF_ASC_NODE":"36.4330","SEMIMAJOR_AXIS":"6925.353","BSTAR":"0.00011225000000","COUNTRY_CODE":"US","INCLINATION":"53.0547","ECCENTRICITY":"0.00014620","TIME_SYSTEM":"UTC","FILE":"3277432","TLE_LINE2":"2 46070  53.0547  36.4330 0001462  64.1740 295.9400 15.06398682 81687","SITE":"AFETR","PERIAPSIS":"546.205","ARG_OF_PERICENTER":"64.1740","REF_FRAME":"TEME","ELEMENT_SET_NO":"999","OBJECT_TYPE":"PAYLOAD","EPOCH":"2022-01-19T10:17:53.798496","RCS_SIZE":"LARGE"},{"MEAN_MOTION_DOT":"0.00001739","OBJECT_ID":"2020-055AW","REV_AT_EPOCH":"8114","CLASSIFICATION_TYPE":"U","LAUNCH_DATE":"2020-08-07","MEAN_ELEMENT_THEORY":"SGP4","MEAN_MOTION_DDOT":"0.0000000000000","PERIOD":"95.593","CENTER_NAME":"EARTH","APOAPSIS":"548.316","TLE_LINE1":"1 46071U 20055AW  22019.44754454  .00001739  00000-0  13571-3 0  9991","OBJECT_NAME":"STARLINK-1538","MEAN_ANOMALY":"289.6405","NORAD_CAT_ID":"46071","MEAN_MOTION":"15.06380703","DECAY_DATE":null,"GP_ID":"194197587","RA_OF_ASC_NODE":"36.3600","SEMIMAJOR_AXIS":"6925.408","BSTAR":"0.00013571000000","EPHEMERIS_TYPE":"0","ECCENTRICITY":"0.00015070","COUNTRY_CODE":"US","INCLINATION":"53.0543","TLE_LINE2":"2 46071  53.0543  36.3600 0001507  70.4747 289.6405 15.06380703 81141","SITE":"AFETR","PERIAPSIS":"546.229","ARG_OF_PERICENTER":"70.4747","TIME_SYSTEM":"UTC","FILE":"3277682","OBJECT_TYPE":"PAYLOAD","EPOCH":"2022-01-19T10:44:27.848256","RCS_SIZE":"LARGE","REF_FRAME":"TEME","ELEMENT_SET_NO":"999"},{"DECAY_DATE":null,"MEAN_MOTION":"15.06391847","NORAD_CAT_ID":"46072","TLE_LINE1":"1 46072U 20055AX  22019.73778024  .00001533  00000-0  12182-3 0  9992","MEAN_ANOMALY":"301.2587","OBJECT_NAME":"STARLINK-1539","APOAPSIS":"548.377","PERIOD":"95.593","CENTER_NAME":"EARTH","MEAN_MOTION_DDOT":"0.0000000000000","MEAN_ELEMENT_THEORY":"SGP4","LAUNCH_DATE":"2020-08-07","CLASSIFICATION_TYPE":"U","REV_AT_EPOCH":"8118","OBJECT_ID":"2020-055AX","MEAN_MOTION_DOT":"0.00001533","ELEMENT_SET_NO":"999","REF_FRAME":"TEME","RCS_SIZE":"LARGE","EPOCH":"2022-01-19T17:42:24.212736","OBJECT_TYPE":"PAYLOAD","FILE":"3277762","TIME_SYSTEM":"UTC","ARG_OF_PERICENTER":"58.8563","SITE":"AFETR","TLE_LINE2":"2 46072  53.0578  35.0497 0001644  58.8563 301.2587 15.06391847 81185","PERIAPSIS":"546.100","INCLINATION":"53.0578","COUNTRY_CODE":"US","ECCENTRICITY":"0.00016440","EPHEMERIS_TYPE":"0","BSTAR":"0.00012182000000","SEMIMAJOR_AXIS":"6925.374","RA_OF_ASC_NODE":"35.0497","GP_ID":"194198531"}];
